{
  "type": "FeatureCollection",
  "features": [
    {
      "type": "Feature",
      "properties": {
        "norad_id": 64694,
        "name": "GOSAT-GW (IBUKI GW)",
        "group": "resource",
        "lat": -22.466786289409878,
        "lon": -66.12277094836182,
        "alt_km": 674.5259804565676,
        "timestamp": "2025-12-21T03:56:50.512491+00:00",
        "meta_object_name": "GOSAT-GW (IBUKI GW)",
        "meta_object_id": "2025-141A",
        "meta_epoch": "2025-12-20T19:52:07.932576",
        "meta_mean_motion": 14.67565918,
        "meta_eccentricity": 0.0001458,
        "meta_inclination": 98.0435,
        "meta_ra_of_asc_node": 290.1943,
        "meta_arg_of_pericenter": 83.929,
        "meta_mean_anomaly": 276.2081,
        "meta_ephemeris_type": 0,
        "meta_classification_type": "U",
        "meta_norad_cat_id": 64694,
        "meta_element_set_no": 999,
        "meta_rev_at_epoch": 2568,
        "meta_bstar": 9.8277e-05,
        "meta_mean_motion_dot": 5.1e-06,
        "meta_mean_motion_ddot": 0,
        "tle_line1": "1 64694U 25141A   25354.82786959  .00000510  00000+0  98277-4 0  9997",
        "tle_line2": "2 64694  98.0435 290.1943 0001458  83.9290 276.2081 14.67565918 25686"
      },
      "geometry": {
        "type": "Point",
        "coordinates": [
          -66.12277094836182,
          -22.466786289409878
        ]
      }
    },
    {
      "type": "Feature",
      "properties": {
        "norad_id": 64876,
        "name": "IONOSFERA-M 3",
        "group": "resource",
        "lat": 23.001233692315658,
        "lon": -46.88176238246225,
        "alt_km": 818.6768703295556,
        "timestamp": "2025-12-21T03:56:50.512500+00:00",
        "meta_object_name": "IONOSFERA-M 3",
        "meta_object_id": "2025-155A",
        "meta_epoch": "2025-12-20T21:04:50.539872",
        "meta_mean_motion": 14.2144283,
        "meta_eccentricity": 0.0002004,
        "meta_inclination": 98.5794,
        "meta_ra_of_asc_node": 316.5145,
        "meta_arg_of_pericenter": 46.877,
        "meta_mean_anomaly": 313.2575,
        "meta_ephemeris_type": 0,
        "meta_classification_type": "U",
        "meta_norad_cat_id": 64876,
        "meta_element_set_no": 999,
        "meta_rev_at_epoch": 2107,
        "meta_bstar": 3.5973e-05,
        "meta_mean_motion_dot": 3.6e-07,
        "meta_mean_motion_ddot": 0,
        "tle_line1": "1 64876U 25155A   25354.87836273  .00000036  00000+0  35973-4 0  9991",
        "tle_line2": "2 64876  98.5794 316.5145 0002004  46.8770 313.2575 14.21442830 21073"
      },
      "geometry": {
        "type": "Point",
        "coordinates": [
          -46.88176238246225,
          23.001233692315658
        ]
      }
    },
    {
      "type": "Feature",
      "properties": {
        "norad_id": 64877,
        "name": "IONOSFERA-M 4",
        "group": "resource",
        "lat": -23.91277063324162,
        "lon": 132.8737766224833,
        "alt_km": 826.7963916238041,
        "timestamp": "2025-12-21T03:56:50.512509+00:00",
        "meta_object_name": "IONOSFERA-M 4",
        "meta_object_id": "2025-155B",
        "meta_epoch": "2025-12-20T20:13:57.939744",
        "meta_mean_motion": 14.21443954,
        "meta_eccentricity": 0.0001404,
        "meta_inclination": 98.5792,
        "meta_ra_of_asc_node": 316.3995,
        "meta_arg_of_pericenter": 55.5135,
        "meta_mean_anomaly": 304.6175,
        "meta_ephemeris_type": 0,
        "meta_classification_type": "U",
        "meta_norad_cat_id": 64877,
        "meta_element_set_no": 999,
        "meta_rev_at_epoch": 2106,
        "meta_bstar": 3.45e-05,
        "meta_mean_motion_dot": 3.3e-07,
        "meta_mean_motion_ddot": 0,
        "tle_line1": "1 64877U 25155B   25354.84303171  .00000033  00000+0  34500-4 0  9997",
        "tle_line2": "2 64877  98.5792 316.3995 0001404  55.5135 304.6175 14.21443954 21065"
      },
      "geometry": {
        "type": "Point",
        "coordinates": [
          132.8737766224833,
          -23.91277063324162
        ]
      }
    },
    {
      "type": "Feature",
      "properties": {
        "norad_id": 64899,
        "name": "MICROCARB",
        "group": "resource",
        "lat": 81.88153376458656,
        "lon": -29.194526610268884,
        "alt_km": 636.1126469255651,
        "timestamp": "2025-12-21T03:56:50.512518+00:00",
        "meta_object_name": "MICROCARB",
        "meta_object_id": "2025-156A",
        "meta_epoch": "2025-12-20T19:22:39.506016",
        "meta_mean_motion": 14.72068878,
        "meta_eccentricity": 0.0017534,
        "meta_inclination": 98.0017,
        "meta_ra_of_asc_node": 70.0233,
        "meta_arg_of_pericenter": 120.4868,
        "meta_mean_anomaly": 239.8073,
        "meta_ephemeris_type": 0,
        "meta_classification_type": "U",
        "meta_norad_cat_id": 64899,
        "meta_element_set_no": 999,
        "meta_rev_at_epoch": 2172,
        "meta_bstar": 8.1944e-05,
        "meta_mean_motion_dot": 4.66e-06,
        "meta_mean_motion_ddot": 0,
        "tle_line1": "1 64899U 25156A   25354.80740169  .00000466  00000+0  81944-4 0  9994",
        "tle_line2": "2 64899  98.0017  70.0233 0017534 120.4868 239.8073 14.72068878 21722"
      },
      "geometry": {
        "type": "Point",
        "coordinates": [
          -29.194526610268884,
          81.88153376458656
        ]
      }
    },
    {
      "type": "Feature",
      "properties": {
        "norad_id": 64900,
        "name": "CO3D 3",
        "group": "resource",
        "lat": 29.21778027933517,
        "lon": -104.40065118919566,
        "alt_km": 503.59538730851364,
        "timestamp": "2025-12-21T03:56:50.512527+00:00",
        "meta_object_name": "CO3D 3",
        "meta_object_id": "2025-156B",
        "meta_epoch": "2025-12-20T19:23:21.550848",
        "meta_mean_motion": 15.20205991,
        "meta_eccentricity": 0.0001342,
        "meta_inclination": 97.4345,
        "meta_ra_of_asc_node": 71.0597,
        "meta_arg_of_pericenter": 79.9574,
        "meta_mean_anomaly": 280.1813,
        "meta_ephemeris_type": 0,
        "meta_classification_type": "U",
        "meta_norad_cat_id": 64900,
        "meta_element_set_no": 999,
        "meta_rev_at_epoch": 2243,
        "meta_bstar": 0.00021865,
        "meta_mean_motion_dot": 4.669e-05,
        "meta_mean_motion_ddot": 0,
        "tle_line1": "1 64900U 25156B   25354.80788832  .00004669  00000+0  21865-3 0  9990",
        "tle_line2": "2 64900  97.4345  71.0597 0001342  79.9574 280.1813 15.20205991 22431"
      },
      "geometry": {
        "type": "Point",
        "coordinates": [
          -104.40065118919566,
          29.21778027933517
        ]
      }
    },
    {
      "type": "Feature",
      "properties": {
        "norad_id": 64901,
        "name": "CO3D 4",
        "group": "resource",
        "lat": 29.820997468495236,
        "lon": -104.29695982862431,
        "alt_km": 502.8614982496365,
        "timestamp": "2025-12-21T03:56:50.512536+00:00",
        "meta_object_name": "CO3D 4",
        "meta_object_id": "2025-156C",
        "meta_epoch": "2025-12-19T14:57:26.055072",
        "meta_mean_motion": 15.20230123,
        "meta_eccentricity": 0.0001264,
        "meta_inclination": 97.434,
        "meta_ra_of_asc_node": 69.8917,
        "meta_arg_of_pericenter": 174.7354,
        "meta_mean_anomaly": 185.3894,
        "meta_ephemeris_type": 0,
        "meta_classification_type": "U",
        "meta_norad_cat_id": 64901,
        "meta_element_set_no": 999,
        "meta_rev_at_epoch": 2225,
        "meta_bstar": 0.00021367,
        "meta_mean_motion_dot": 4.564e-05,
        "meta_mean_motion_ddot": 0,
        "tle_line1": "1 64901U 25156C   25353.62321823  .00004564  00000+0  21367-3 0  9994",
        "tle_line2": "2 64901  97.4340  69.8917 0001264 174.7354 185.3894 15.20230123 22251"
      },
      "geometry": {
        "type": "Point",
        "coordinates": [
          -104.29695982862431,
          29.820997468495236
        ]
      }
    },
    {
      "type": "Feature",
      "properties": {
        "norad_id": 64902,
        "name": "CO3D 2",
        "group": "resource",
        "lat": -27.8881496773224,
        "lon": 75.27281615612246,
        "alt_km": 511.1393486328461,
        "timestamp": "2025-12-21T03:56:50.512558+00:00",
        "meta_object_name": "CO3D 2",
        "meta_object_id": "2025-156D",
        "meta_epoch": "2025-12-20T20:10:20.170272",
        "meta_mean_motion": 15.20213953,
        "meta_eccentricity": 7.46e-05,
        "meta_inclination": 97.4344,
        "meta_ra_of_asc_node": 70.991,
        "meta_arg_of_pericenter": 72.7365,
        "meta_mean_anomaly": 287.3951,
        "meta_ephemeris_type": 0,
        "meta_classification_type": "U",
        "meta_norad_cat_id": 64902,
        "meta_element_set_no": 999,
        "meta_rev_at_epoch": 2243,
        "meta_bstar": 0.00077915,
        "meta_mean_motion_dot": 0.00016843,
        "meta_mean_motion_ddot": 0,
        "tle_line1": "1 64902U 25156D   25354.84051123  .00016843  00000+0  77915-3 0  9996",
        "tle_line2": "2 64902  97.4344  70.9910 0000746  72.7365 287.3951 15.20213953 22434"
      },
      "geometry": {
        "type": "Point",
        "coordinates": [
          75.27281615612246,
          -27.8881496773224
        ]
      }
    }
  ]
}